{"type": "FeatureCollection", "features": [ {"type": "Feature", "properties": {"norad_id": 29769, "name": "FENGYUN 1C DEB", "group": "fengyun-1c-debris", "lat": 8.068414862952299, "lon": -134.9373615381706, "alt_km": 797.3066420070309, "timestamp": "2025-12-12T11:38:31.683070+00:00", "meta": {"OBJECT_NAME": "FENGYUN 1C DEB", "OBJECT_ID": "1999-025BK", "EPOCH": "2025-12-10T14:40:10.559712", "MEAN_MOTION": 14.13511382, "ECCENTRICITY": 0.0093919, "INCLINATION": 99.1049, "RA_OF_ASC_NODE": 41.8532, "ARG_OF_PERICENTER": 136.3981, "MEAN_ANOMALY": 224.4662, "EPHEMERIS_TYPE": 0, "CLASSIFICATION_TYPE": "U", "NORAD_CAT_ID": 29769, "ELEMENT_SET_NO": 999, "REV_AT_EPOCH": 96651, "BSTAR": 0.0020798, "MEAN_MOTION_DOT": 4.04e-05, "MEAN_MOTION_DDOT": 0}, "tle": {"line1": "1 29769U 99025BK  25344.61123333  .00004040  00000+0  20798-2 0  9993", "line2": "2 29769  99.1049  41.8532 0093919 136.3981 224.4662 14.13511382966514"}}, "geometry": {"type": "Point", "coordinates": [-134.9373615381706, 8.068414862952299]}}, {"type": "Feature", "properties": {"norad_id": 29770, "name": "FENGYUN 1C DEB", "group": "fengyun-1c-debris", "lat": -47.3499597949193, "lon": 71.78902018879788, "alt_km": 797.0197586216336, "timestamp": "2025-12-12T11:38:31.683081+00:00", "meta": {"OBJECT_NAME": "FENGYUN 1C DEB", "OBJECT_ID": "1999-025BL", "EPOCH": "2025-12-11T16:18:23.937408", "MEAN_MOTION": 14.20105451, "ECCENTRICITY": 0.00626785, "INCLINATION": 98.8463, "RA_OF_ASC_NODE": 61.2503, "ARG_OF_PERICENTER": 274.3037, "MEAN_ANOMALY": 240.7519, "EPHEMERIS_TYPE": 0, "CLASSIFICATION_TYPE": "U", "NORAD_CAT_ID": 29770, "ELEMENT_SET_NO": 999, "REV_AT_EPOCH": 97071, "BSTAR": 0.0023206891, "MEAN_MOTION_DOT": 5.002e-05, "MEAN_MOTION_DDOT": 0}, "tle": {"line1": "1 29770U 99025BL  25345.67944372  .00005002  00000+0  23207-2 0  9993", "line2": "2 29770  98.8463  61.2503 0062678 274.3037 240.7519 14.20105451970712"}}, "geometry": {"type": "Point", "coordinates": [71.78902018879788, -47.3499597949193]}}, {"type": "Feature", "properties": {"norad_id": 29772, "name": "FENGYUN 1C DEB", "group": "fengyun-1c-debris", "lat": -64.20759088270033, "lon": -2.073680640221284, "alt_km": 818.8268795818658, "timestamp": "2025-12-12T11:38:31.683091+00:00", "meta": {"OBJECT_NAME": "FENGYUN 1C DEB", "OBJECT_ID": "1999-025BN", "EPOCH": "2025-12-10T07:59:03.938208", "MEAN_MOTION": 14.0319606, "ECCENTRICITY": 0.0138223, "INCLINATION": 98.3886, "RA_OF_ASC_NODE": 193.7194, "ARG_OF_PERICENTER": 297.041, "MEAN_ANOMALY": 242.7077, "EPHEMERIS_TYPE": 0, "CLASSIFICATION_TYPE": "U", "NORAD_CAT_ID": 29772, "ELEMENT_SET_NO": 999, "REV_AT_EPOCH": 96221, "BSTAR": 0.0016568, "MEAN_MOTION_DOT": 2.769e-05, "MEAN_MOTION_DDOT": 0}, "tle": {"line1": "1 29772U 99025BN  25344.33268447  .00002769  00000+0  16568-2 0  9998", "line2": "2 29772  98.3886 193.7194 0138223 297.0410 242.7077 14.03196060962216"}}, "geometry": {"type": "Point", "coordinates": [-2.073680640221284, -64.20759088270033]}}, {"type": "Feature", "properties": {"norad_id": 29773, "name": "FENGYUN 1C DEB", "group": "fengyun-1c-debris", "lat": -80.91433617375148, "lon": -138.1705780888835, "alt_km": 775.92081078506, "timestamp": "2025-12-12T11:38:31.683101+00:00", "meta": {"OBJECT_NAME": "FENGYUN 1C DEB", "OBJECT_ID": "1999-025BP", "EPOCH": "2025-12-11T21:38:09.574080", "MEAN_MOTION": 14.27567728, "ECCENTRICITY": 0.0046362, "INCLINATION": 98.9875, "RA_OF_ASC_NODE": 139.4801, "ARG_OF_PERICENTER": 293.136, "MEAN_ANOMALY": 220.8267, "EPHEMERIS_TYPE": 0, "CLASSIFICATION_TYPE": "U", "NORAD_CAT_ID": 29773, "ELEMENT_SET_NO": 999, "REV_AT_EPOCH": 98185, "BSTAR": 0.00056812, "MEAN_MOTION_DOT": 1.366e-05, "MEAN_MOTION_DDOT": 0}, "tle": {"line1": "1 29773U 99025BP  25345.90149970  .00001366  00000+0  56812-3 0  9991", "line2": "2 29773  98.9875 139.4801 0046362 293.1360 220.8267 14.27567728981854"}}, "geometry": {"type": "Point", "coordinates": [-138.1705780888835, -80.91433617375148]}}, {"type": "Feature", "properties": {"norad_id": 29774, "name": "FENGYUN 1C DEB", "group": "fengyun-1c-debris", "lat": -61.76898253622971, "lon": 89.48525398597293, "alt_km": 841.0042427005228, "timestamp": "2025-12-12T11:38:31.683111+00:00", "meta": {"OBJECT_NAME": "FENGYUN 1C DEB", "OBJECT_ID": "1999-025BQ", "EPOCH": "2025-12-11T19:26:56.292000", "MEAN_MOTION": 14.22731291, "ECCENTRICITY": 0.0051061, "INCLINATION": 99.076, "RA_OF_ASC_NODE": 286.1115, "ARG_OF_PERICENTER": 125.8861, "MEAN_ANOMALY": 262.8507, "EPHEMERIS_TYPE": 0, "CLASSIFICATION_TYPE": "U", "NORAD_CAT_ID": 29774, "ELEMENT_SET_NO": 999, "REV_AT_EPOCH": 98062, "BSTAR": 0.00026781, "MEAN_MOTION_DOT": 5.61e-06, "MEAN_MOTION_DDOT": 0}, "tle": {"line1": "1 29774U 99025BQ  25345.81037375  .00000561  00000+0  26781-3 0  9995", "line2": "2 29774  99.0760 286.1115 0051061 125.8861 262.8507 14.22731291980627"}}, "geometry": {"type": "Point", "coordinates": [89.48525398597293, -61.76898253622971]}}, {"type": "Feature", "properties": {"norad_id": 29776, "name": "FENGYUN 1C DEB", "group": "fengyun-1c-debris", "lat": 36.3986519874414, "lon": -160.21869980522465, "alt_km": 874.685022689363, "timestamp": "2025-12-12T11:38:31.683121+00:00", "meta": {"OBJECT_NAME": "FENGYUN 1C DEB", "OBJECT_ID": "1999-025BS", "EPOCH": "2025-12-12T00:59:10.455936", "MEAN_MOTION": 14.07774244, "ECCENTRICITY": 0.0022803, "INCLINATION": 98.7713, "RA_OF_ASC_NODE": 12.8144, "ARG_OF_PERICENTER": 272.9218, "MEAN_ANOMALY": 141.3803, "EPHEMERIS_TYPE": 0, "CLASSIFICATION_TYPE": "U", "NORAD_CAT_ID": 29776, "ELEMENT_SET_NO": 999, "REV_AT_EPOCH": 97070, "BSTAR": 0.00020354, "MEAN_MOTION_DOT": 3.02e-06, "MEAN_MOTION_DDOT": 0}, "tle": {"line1": "1 29776U 99025BS  25346.04109324  .00000302  00000+0  20354-3 0  9990", "line2": "2 29776  98.7713  12.8144 0022803 272.9218 141.3803 14.07774244970707"}}, "geometry": {"type": "Point", "coordinates": [-160.21869980522465, 36.3986519874414]}}, {"type": "Feature", "properties": {"norad_id": 29777, "name": "FENGYUN 1C DEB", "group": "fengyun-1c-debris", "lat": -22.994443450640585, "lon": -140.63327160839356, "alt_km": 859.4397904180832, "timestamp": "2025-12-12T11:38:31.683132+00:00", "meta": {"OBJECT_NAME": "FENGYUN 1C DEB", "OBJECT_ID": "1999-025BT", "EPOCH": "2025-12-11T23:11:46.052736", "MEAN_MOTION": 13.92104104, "ECCENTRICITY": 0.0092694, "INCLINATION": 99.2837, "RA_OF_ASC_NODE": 42.8277, "ARG_OF_PERICENTER": 211.8304, "MEAN_ANOMALY": 273.9892, "EPHEMERIS_TYPE": 0, "CLASSIFICATION_TYPE": "U", "NORAD_CAT_ID": 29777, "ELEMENT_SET_NO": 999, "REV_AT_EPOCH": 96030, "BSTAR": 0.0002801, "MEAN_MOTION_DOT": 3.26e-06, "MEAN_MOTION_DDOT": 0}, "tle": {"line1": "1 29777U 99025BT  25345.96650524  .00000326  00000+0  28010-3 0  9997", "line2": "2 29777  99.2837  42.8277 0092694 211.8304 273.9892 13.92104104960304"}}, "geometry": {"type": "Point", "coordinates": [-140.63327160839356, -22.994443450640585]}}, {"type": "Feature", "properties": {"norad_id": 29779, "name": "FENGYUN 1C DEB", "group": "fengyun-1c-debris", "lat": 35.80871054853678, "lon": -175.94484118257944, "alt_km": 802.33285366774, "timestamp": "2025-12-12T11:38:31.683142+00:00", "meta": {"OBJECT_NAME": "FENGYUN 1C DEB", "OBJECT_ID": "1999-025BV", "EPOCH": "2025-12-11T06:04:56.854848", "MEAN_MOTION": 14.13440852, "ECCENTRICITY": 0.00634412, "INCLINATION": 98.6773, "RA_OF_ASC_NODE": 356.5351, "ARG_OF_PERICENTER": 168.3803, "MEAN_ANOMALY": 191.8851, "EPHEMERIS_TYPE": 0, "CLASSIFICATION_TYPE": "U", "NORAD_CAT_ID": 29779, "ELEMENT_SET_NO": 999, "REV_AT_EPOCH": 97391, "BSTAR": 0.00035996643, "MEAN_MOTION_DOT": 6.47e-06, "MEAN_MOTION_DDOT": 0}, "tle": {"line1": "1 29779U 99025BV  25345.25343582  .00000647  00000+0  35997-3 0  9992", "line2": "2 29779  98.6773 356.5351 0063441 168.3803 191.8851 14.13440852973915"}}, "geometry": {"type": "Point", "coordinates": [-175.94484118257944, 35.80871054853678]}}, {"type": "Feature", "properties": {"norad_id": 29780, "name": "FENGYUN 1C DEB", "group": "fengyun-1c-debris", "lat": -78.69880214368364, "lon": 32.52536429389592, "alt_km": 849.5680923415157, "timestamp": "2025-12-12T11:38:31.683153+00:00", "meta": {"OBJECT_NAME": "FENGYUN 1C DEB", "OBJECT_ID": "1999-025BW", "EPOCH": "2025-12-12T00:16:11.656128", "MEAN_MOTION": 14.21032654, "ECCENTRICITY": 0.0040492, "INCLINATION": 99.2771, "RA_OF_ASC_NODE": 266.9031, "ARG_OF_PERICENTER": 130.2254, "MEAN_ANOMALY": 230.2476, "EPHEMERIS_TYPE": 0, "CLASSIFICATION_TYPE": "U", "NORAD_CAT_ID": 29780, "ELEMENT_SET_NO": 999, "REV_AT_EPOCH": 97068, "BSTAR": 0.0026897, "MEAN_MOTION_DOT": 5.839e-05, "MEAN_MOTION_DDOT": 0}, "tle": {"line1": "1 29780U 99025BW  25346.01124602  .00005839  00000+0  26897-2 0  9995", "line2": "2 29780  99.2771 266.9031 0040492 130.2254 230.2476 14.21032654970688"}}, "geometry": {"type": "Point", "coordinates": [32.52536429389592, -78.69880214368364]}}, {"type": "Feature", "properties": {"norad_id": 29781, "name": "FENGYUN 1C DEB", "group": "fengyun-1c-debris", "lat": -48.42770538532013, "lon": 150.57856437450664, "alt_km": 852.6115223447541, "timestamp": "2025-12-12T11:38:31.683163+00:00", "meta": {"OBJECT_NAME": "FENGYUN 1C DEB", "OBJECT_ID": "1999-025BX", "EPOCH": "2025-12-11T22:51:32.842944", "MEAN_MOTION": 14.05223468, "ECCENTRICITY": 0.007184, "INCLINATION": 98.8095, "RA_OF_ASC_NODE": 340.1303, "ARG_OF_PERICENTER": 175.3378, "MEAN_ANOMALY": 240.1545, "EPHEMERIS_TYPE": 0, "CLASSIFICATION_TYPE": "U", "NORAD_CAT_ID": 29781, "ELEMENT_SET_NO": 999, "REV_AT_EPOCH": 96632, "BSTAR": 0.00083414, "MEAN_MOTION_DOT": 1.337e-05, "MEAN_MOTION_DDOT": 0}, "tle": {"line1": "1 29781U 99025BX  25345.95246346  .00001337  00000+0  83414-3 0  9996", "line2": "2 29781  98.8095 340.1303 0071840 175.3378 240.1545 14.05223468966328"}}, "geometry": {"type": "Point", "coordinates": [150.57856437450664, -48.42770538532013]}}]}